{
    "links": {
        "self": "http://www.neowsapp.com/rest/v1/neo/3789393?api_key=iIulBulltgU6a56xZRHN4H3l9WmuAYTsLGpBGhQ2"
    },
    "id": "3789393",
    "neo_reference_id": "3789393",
    "name": "(2017 VB14)",
    "designation": "2017 VB14",
    "nasa_jpl_url": "http://ssd.jpl.nasa.gov/sbdb.cgi?sstr=3789393",
    "absolute_magnitude_h": 24.6,
    "estimated_diameter": {
        "kilometers": {
            "estimated_diameter_min": 0.0319561887,
            "estimated_diameter_max": 0.0714562102
        },
        "meters": {
            "estimated_diameter_min": 31.9561886721,
            "estimated_diameter_max": 71.4562101727
        },
        "miles": {
            "estimated_diameter_min": 0.0198566489,
            "estimated_diameter_max": 0.0444008168
        },
        "feet": {
            "estimated_diameter_min": 104.8431420431,
            "estimated_diameter_max": 234.436392583
        }
    },
    "is_potentially_hazardous_asteroid": false,
    "close_approach_data": [
        {
            "close_approach_date": "2013-12-26",
            "close_approach_date_full": "2013-Dec-26 07:18",
            "epoch_date_close_approach": 1388042280000,
            "relative_velocity": {
                "kilometers_per_second": "16.6112194748",
                "kilometers_per_hour": "59800.3901092357",
                "miles_per_hour": "37157.6368431526"
            },
            "miss_distance": {
                "astronomical": "0.4733588803",
                "lunar": "184.1366044367",
                "kilometers": "70813480.238464961",
                "miles": "44001456.2455440218"
            },
            "orbiting_body": "Earth"
        },
        {
            "close_approach_date": "2015-12-03",
            "close_approach_date_full": "2015-Dec-03 12:51",
            "epoch_date_close_approach": 1449147060000,
            "relative_velocity": {
                "kilometers_per_second": "11.9873797673",
                "kilometers_per_hour": "43154.5671621684",
                "miles_per_hour": "26814.569801404"
            },
            "miss_distance": {
                "astronomical": "0.2283213999",
                "lunar": "88.8170245611",
                "kilometers": "34156395.100458213",
                "miles": "21223799.7547528194"
            },
            "orbiting_body": "Earth"
        },
        {
            "close_approach_date": "2017-11-16",
            "close_approach_date_full": "2017-Nov-16 05:09",
            "epoch_date_close_approach": 1510808940000,
            "relative_velocity": {
                "kilometers_per_second": "12.0674418744",
                "kilometers_per_hour": "43442.7907479001",
                "miles_per_hour": "26993.6607288827"
            },
            "miss_distance": {
                "astronomical": "0.052130251",
                "lunar": "20.278667639",
                "kilometers": "7798574.51216537",
                "miles": "4845809.498687306"
            },
            "orbiting_body": "Earth"
        },
        {
            "close_approach_date": "2019-11-02",
            "close_approach_date_full": "2019-Nov-02 03:56",
            "epoch_date_close_approach": 1572666960000,
            "relative_velocity": {
                "kilometers_per_second": "16.3476638023",
                "kilometers_per_hour": "58851.5896884064",
                "miles_per_hour": "36568.0891594434"
            },
            "miss_distance": {
                "astronomical": "0.2846481261",
                "lunar": "110.7281210529",
                "kilometers": "42582753.364051407",
                "miles": "26459695.9880151366"
            },
            "orbiting_body": "Earth"
        }
    ],
    "orbital_data": {
        "orbit_id": "2",
        "orbit_determination_date": "2017-11-19 06:20:50",
        "first_observation_date": "2017-11-14",
        "last_observation_date": "2017-11-19",
        "data_arc_in_days": 5,
        "observations_used": 29,
        "orbit_uncertainty": "8",
        "minimum_orbit_intersection": ".0453483",
        "jupiter_tisserand_invariant": "4.288",
        "epoch_osculation": "2458072.5",
        "eccentricity": ".3550648302780631",
        "semi_major_axis": "1.566924361335855",
        "inclination": "19.50256537480419",
        "ascending_node_longitude": "233.3731976394804",
        "orbital_period": "716.4245769354984",
        "perihelion_distance": "1.010564628919577",
        "perihelion_argument": "205.2081875578328",
        "aphelion_distance": "2.123284093752133",
        "perihelion_time": "2458094.544542936116",
        "mean_anomaly": "348.9227202520772",
        "mean_motion": ".502495324127346",
        "equinox": "J2000",
        "orbit_class": {
            "orbit_class_type": "APO",
            "orbit_class_description": "Near-Earth asteroid orbits which cross the Earth’s orbit similar to that of 1862 Apollo",
            "orbit_class_range": "a (semi-major axis) > 1.0 AU; q (perihelion) < 1.017 AU"
        }
    },
    "is_sentry_object": false
}